[{"OBJECT_NAME":"SKYSAT-C6","OBJECT_ID":"2017-068F","EPOCH":"2026-03-09T21:33:49.392576","MEAN_MOTION":15.32504544,"ECCENTRICITY":0.00036369,"INCLINATION":97.44,"RA_OF_ASC_NODE":205.7173,"ARG_OF_PERICENTER":127.5085,"MEAN_ANOMALY":232.6488,"EPHEMERIS_TYPE":0,"CLASSIFICATION_TYPE":"U","NORAD_CAT_ID":42992,"ELEMENT_SET_NO":999,"REV_AT_EPOCH":46710,"BSTAR":0.00039699196,"MEAN_MOTION_DOT":0.0001239,"MEAN_MOTION_DDOT":0},{"OBJECT_NAME":"STARLINK-35612","OBJECT_ID":"2025-237Q","EPOCH":"2026-03-09T22:09:52.382880","MEAN_MOTION":15.30214199,"ECCENTRICITY":0.00011536,"INCLINATION":53.1611,"RA_OF_ASC_NODE":38.7325,"ARG_OF_PERICENTER":90.1189,"MEAN_ANOMALY":269.9944,"EPHEMERIS_TYPE":0,"CLASSIFICATION_TYPE":"U","NORAD_CAT_ID":66128,"ELEMENT_SET_NO":999,"REV_AT_EPOCH":2264,"BSTAR":0.001226028,"MEAN_MOTION_DOT":0.00036145,"MEAN_MOTION_DDOT":0}]
